TROPICS-05              
1 56442U 23062A   23155.82314318  .00009159  00000+0  59546-3 0  9995
2 56442  32.7378 334.4382 0009877 127.8739 232.2825 15.06942103  4186
2023-062B               
1 56443U 23062B   23155.80723675  .00010854  00000+0  68850-3 0  9996
2 56443  32.7349 334.3066 0012137 126.7651 233.4134 15.07836373  4185
TROPICS-06              
1 56444U 23062C   23155.86924440  .00009775  00000+0  61600-3 0  9992
2 56444  32.7375 333.8513 0014335 120.8544 239.3537 15.08042792  4169
2023-062D               
1 56445U 23062D   23155.91210734  .00008584  00000+0  57915-3 0  9994
2 56445  35.4835 340.6662 0011394 106.0986 254.0987 15.05952293  4177
TIANZHOU-6              
1 56446U 23063A   23155.61672786  .00026920  00000+0  33000-3 0  9995
2 56446  41.4733 232.2671 0003764 295.6807  64.3643 15.59722073119872
STARLINK-5990           
1 56448U 23064A   23156.20401035  .00001890  00000+0  17486-4 0  9991
2 56448  69.9976 173.6815 0003692 265.4101  94.6673 15.69925915  4376
STARLINK-5993           
1 56449U 23064B   23156.20443480  .00001007  00000+0  10149-4 0  9991
2 56449  69.9963 173.6824 0003583 271.4928  88.5857 15.69919840  4372
STARLINK-5970           
1 56450U 23064C   23156.20390611  .00000774  00000+0  82097-5 0  9992
2 56450  69.9976 173.6807 0003501 268.3083  91.7711 15.69923228  4376
STARLINK-5985           
1 56451U 23064D   23156.20432732 -.00001337  00000+0 -93522-5 0  9997
2 56451  69.9984 173.6828 0003523 266.3273  93.7520 15.69923511  4377
STARLINK-5986           
1 56452U 23064E   23156.20422271  .00001066  00000+0  10631-4 0  9991
2 56452  69.9981 173.6821 0003540 263.0117  97.0676 15.69922471  4371
STARLINK-5935           
1 56453U 23064F   23156.20411465  .00001978  00000+0  18216-4 0  9994
2 56453  69.9972 173.6804 0003738 267.6321  92.4446 15.69926252  4374
STARLINK-5959           
1 56454U 23064G   23156.20348162  .00003051  00000+0  27124-4 0  9990
2 56454  69.9975 173.6800 0003486 264.7315  95.3483 15.69930566  4371
STARLINK-5987           
1 56455U 23064H   23155.62992721 -.00000642  00000+0 -35690-5 0  9995
2 56455  69.9970 175.2898 0003345 267.6539  92.4273 15.69929729  3931
STARLINK-5995           
1 56456U 23064J   23156.20380247  .00000366  00000+0  48155-5 0  9996
2 56456  69.9973 173.6809 0003428 266.6481  93.4323 15.69922102  4370
STARLINK-5994           
1 56457U 23064K   23156.20358823  .00001606  00000+0  15124-4 0  9999
2 56457  69.9977 173.6779 0003446 262.6714  97.4090 15.69925349  4377
STARLINK-6050           
1 56458U 23064L   23156.20369616  .00000597  00000+0  67336-5 0  9993
2 56458  69.9981 173.6795 0003500 266.2937  93.7858 15.69922865  4370
STARLINK-6048           
1 56459U 23064M   23156.20295757  .00000346  00000+0  46459-5 0  9993
2 56459  69.9982 173.6773 0003272 267.5095  92.5726 15.69924725  4371
STARLINK-6047           
1 56460U 23064N   23156.13955655  .00000410  00000+0  51780-5 0  9992
2 56460  69.9989 173.8577 0003420 270.2733  89.8071 15.69926404  4366
STARLINK-6037           
1 56461U 23064P   23156.20274657  .00001107  00000+0  10975-4 0  9991
2 56461  69.9980 173.6752 0003468 268.0714  92.0085 15.69924395  4376
STARLINK-6045           
1 56462U 23064Q   23156.17628860  .00001728  00000+0  16133-4 0  9998
2 56462  69.9982 173.1496 0003338 273.3138  86.7675 15.69931180  4380
STARLINK-6051           
1 56463U 23064R   23156.20264207 -.00000011  00000+0  16823-5 0  9996
2 56463  69.9991 173.6759 0003420 272.1912  87.8892 15.69922586  4379
STARLINK-6043           
1 56464U 23064S   23156.20306368  .00000200  00000+0  34328-5 0  9991
2 56464  69.9984 173.6769 0003380 268.3120  91.7688 15.69923284  4379
STARLINK-6054           
1 56465U 23064T   23155.91667824  .00052742  00000+0  43801-3 0  9998
2 56465  69.9936 173.6061 0003233 268.0741 298.2783 15.69904497  1300
STARLINK-6053           
1 56466U 23064U   23156.20285794  .00001657  00000+0  15556-4 0  9990
2 56466  69.9975 173.6764 0003680 270.9563  89.1211 15.69913697  4379
STARLINK-6055           
1 56467U 23064V   23156.20200827  .00000605  00000+0  68017-5 0  9998
2 56467  69.9980 173.6729 0003643 263.5455  96.5326 15.69923545  4376
STARLINK-5998           
1 56468U 23064W   23156.20243262  .00000781  00000+0  82674-5 0  9999
2 56468  69.9975 173.6738 0003527 267.7316  92.3476 15.69921924  4373
STARLINK-5518           
1 56469U 23064X   23156.20232274  .00008781  00000+0  74658-4 0  9991
2 56469  69.9983 173.6716 0003551 257.9728 102.1070 15.69944349  4370
STARLINK-5523           
1 56470U 23064Y   23156.20211440  .00000795  00000+0  83786-5 0  9995
2 56470  69.9970 173.6735 0003607 274.7230  85.3554 15.69923003  4379
STARLINK-5521           
1 56471U 23064Z   23155.62834931  .00009162  00000+0  77848-4 0  9995
2 56471  69.9988 175.2849 0003427 263.5963  96.4842 15.69934656  3932
STARLINK-5038           
1 56472U 23064AA  23156.20191025 -.00007054  00000+0 -56977-4 0  9991
2 56472  69.9995 173.6755 0003567 273.7126  86.3661 15.69907363  4379
STARLINK-5486           
1 56473U 23064AB  23156.20148427  .00000517  00000+0  60724-5 0  9991
2 56473  69.9969 173.6699 0003538 266.6043  93.4747 15.69923162  4374
STARLINK-5524           
1 56474U 23064AC  23156.20221928  .00000931  00000+0  95082-5 0  9995
2 56474  69.9984 173.6737 0003333 272.2149  87.8665 15.69925552  4379
STARLINK-5541           
1 56475U 23064AD  23156.13744966  .00003297  00000+0  29175-4 0  9997
2 56475  69.9996 173.8496 0002491 281.9828  78.1089 15.69929795  4367
STARLINK-5545           
1 56476U 23064AE  23156.20169106  .00001570  00000+0  14824-4 0  9990
2 56476  69.9977 173.6716 0003342 268.5430  91.5382 15.69925673  4373
STARLINK-5534           
1 56477U 23064AF  23156.20106317  .00000895  00000+0  92131-5 0  9993
2 56477  69.9980 173.6683 0003257 274.4927  85.5897 15.69922332  4376
STARLINK-6041           
1 56478U 23064AG  23156.20137815  .00001332  00000+0  12843-4 0  9999
2 56478  70.0001 173.6709 0003138 270.5878  89.4958 15.69924483  4373
STARLINK-6044           
1 56479U 23064AH  23156.20063962 -.00000014  00000+0  16536-5 0  9992
2 56479  69.9983 173.6661 0003522 266.8930  93.1862 15.69926527  4378
STARLINK-6214           
1 56480U 23064AJ  23156.20158660  .00000882  00000+0  91051-5 0  9991
2 56480  69.9984 173.6716 0003414 265.7717  94.3089 15.69925512  4370
STARLINK-6222           
1 56481U 23064AK  23156.20085451  .00002130  00000+0  19481-4 0  9993
2 56481  69.9980 173.6670 0002986 258.9532 101.1328 15.69916680  4377
STARLINK-6220           
1 56482U 23064AL  23156.20127766 -.00001712  00000+0 -12473-4 0  9991
2 56482  69.9975 173.6690 0003363 265.6177  94.4634 15.69914977  4375
STARLINK-5868           
1 56483U 23064AM  23156.20053697 -.00000612  00000+0 -33220-5 0  9995
2 56483  69.9988 173.6653 0003398 266.8725  93.2082 15.69918521  4372
STARLINK-6221           
1 56484U 23064AN  23155.62750528 -.00000014  00000+0  16539-5 0  9997
2 56484  69.9972 175.2807 0003638 268.6641  91.4138 15.69922453  3931
STARLINK-6210           
1 56485U 23064AP  23156.20042793  .00000964  00000+0  97839-5 0  9996
2 56485  69.9991 173.6651 0003457 260.2492  99.8314 15.69921401  4372
STARLINK-6201           
1 56486U 23064AQ  23156.20074619  .00000469  00000+0  56676-5 0  9993
2 56486  69.9973 173.6673 0003559 267.9087  92.1702 15.69922595  4376
STARLINK-6196           
1 56487U 23064AR  23156.20010988  .00003040  00000+0  27040-4 0  9993
2 56487  69.9991 173.6620 0003185 266.8386  93.2446 15.69927405  4376
STARLINK-6204           
1 56488U 23064AS  23155.62687365  .00007177  00000+0  61402-4 0  9993
2 56488  69.9992 175.2771 0003135 273.1299  86.9538 15.69927455  3939
STARLINK-5923           
1 56489U 23064AT  23156.20000689  .00000822  00000+0  86080-5 0  9997
2 56489  69.9987 173.6609 0003207 270.4341  89.6487 15.69925217  4370
STARLINK-5873           
1 56490U 23064AU  23156.20021791  .00000773  00000+0  81962-5 0  9995
2 56490  69.9988 173.6646 0003245 270.1774  89.9050 15.69923528  4375
STARLINK-5842           
1 56491U 23064AV  23156.19989993  .00001495  00000+0  14204-4 0  9997
2 56491  69.9982 173.6614 0003202 268.8039  91.2789 15.69923954  4374
STARLINK-5846           
1 56492U 23064AW  23156.19969222  .00001639  00000+0  15401-4 0  9991
2 56492  69.9997 173.6608 0003280 276.2224  83.8598 15.69922576  4373
STARLINK-5841           
1 56493U 23064AX  23156.13544474  .00001012  00000+0  10187-4 0  9995
2 56493  69.9989 173.8388 0003626 265.7292  94.3489 15.69925296  4361
STARLINK-5530           
1 56494U 23064AY  23156.19979757  .00000526  00000+0  61430-5 0  9995
2 56494  69.9977 173.6627 0003361 267.1076  92.9735 15.69919956  4370
STARLINK-5529           
1 56495U 23064AZ  23156.19947872  .00001394  00000+0  13362-4 0  9993
2 56495  69.9991 173.6610 0003370 256.7894 103.2926 15.69926794  4377
STARLINK-5526           
1 56496U 23064BA  23156.19937320  .00011195  00000+0  94679-4 0  9991
2 56496  69.9992 173.6650 0004121 270.6085  89.4639 15.69939163  4375
STARLINK-5527           
1 56497U 23064BB  23156.19926699  .00000025  00000+0  19760-5 0  9998
2 56497  69.9986 173.6595 0003713 262.2100  97.8674 15.69923400  4377
STARLINK-5522           
1 56498U 23064BC  23155.62613381  .00000629  00000+0  70026-5 0  9999
2 56498  69.9989 175.2751 0003791 265.1802  94.8961 15.69923112  3937
STARLINK-5775           
1 56503U 23065A   23156.13998917  .00001353  00000+0  13764-4 0  9995
2 56503  43.0002 312.0116 0002100 267.9732  92.0895 15.71360690  3872
STARLINK-5716           
1 56504U 23065B   23156.13978092  .00021822  00000+0  16926-3 0  9993
2 56504  43.0001 312.0088 0002084 282.5623  77.5012 15.71376997  3879
STARLINK-5763           
1 56505U 23065C   23156.13967766  .00054223  00000+0  41327-3 0  9994
2 56505  43.0000 312.0087 0002481 271.8916  88.1667 15.71409578  3871
